CTC1_L_00274016-03
1 77909U 24927FD  26070.40834491  .00000000  00000+0  00000-0 0  9993
2 77909  65.0000 180.0000 0000000   0.0000   0.0000 15.28598846    11
CTC1_L_00274016-04
1 77910U 25077P   26070.40834491  .00000000  00000+0  00000-0 0  9992
2 77910  65.0000 180.0000 0000000   0.0000  90.0000 15.28598846    12
CTC1_L_00274017-01
1 77911U 23108PV  26070.40834491  .00000000  00000+0  00000-0 0  9996
2 77911  65.0000 192.0000 0000000   0.0000 192.0000 15.28598846    19
CTC1_L_00274017-02
1 77912U 23187MG  26070.40834491  .00000000  00000+0  00000-0 0  9994
2 77912  65.0000 192.0000 0000000   0.0000 282.0000 15.28598846    10
CTC1_L_00274017-03
1 77913U 25162HB  26070.40834491  .00000000  00000+0  00000-0 0  9990
2 77913  65.0000 192.0000 0000000   0.0000  12.0000 15.28598846    12
CTC1_L_00274017-04
1 77914U 25548SV  26070.40834491  .00000000  00000+0  00000-0 0  9999
2 77914  65.0000 192.0000 0000000   0.0000 102.0000 15.28598846    13
CTC1_L_00274018-01
1 77915U 25625HT  26070.40834491  .00000000  00000+0  00000-0 0  9996
2 77915  65.0000 204.0000 0000000   0.0000 204.0000 15.28598846    11
CTC1_L_00274018-02
1 77916U 26707B   26070.40834491  .00000000  00000+0  00000-0 0  9999
2 77916  65.0000 204.0000 0000000   0.0000 294.0000 15.28598846    11
CTC1_L_00274018-03
1 77917U 25342VP  26070.40834491  .00000000  00000+0  00000-0 0  9994
2 77917  65.0000 204.0000 0000000   0.0000  24.0000 15.28598846    13
CTC1_L_00274018-04
1 77918U 22471DF  26070.40834491  .00000000  00000+0  00000-0 0  9995
2 77918  65.0000 204.0000 0000000   0.0000 114.0000 15.28598846    14
CTC1_L_00274019-01
1 77919U 22693UX  26070.40834491  .00000000  00000+0  00000-0 0  9992
2 77919  65.0000 216.0000 0000000   0.0000 216.0000 15.28598846    11
CTC1_L_00274019-02
1 77920U 22918IS  26070.40834491  .00000000  00000+0  00000-0 0  9994
2 77920  65.0000 216.0000 0000000   0.0000 306.0000 15.28598846    13
CTC1_L_00274019-03
1 77921U 22176BC  26070.40834491  .00000000  00000+0  00000-0 0  9991
2 77921  65.0000 216.0000 0000000   0.0000  36.0000 15.28598846    14
CTC1_L_00274019-04
1 77922U 26683K   26070.40834491  .00000000  00000+0  00000-0 0  9999
2 77922  65.0000 216.0000 0000000   0.0000 126.0000 15.28598846    15
CTC1_L_00274020-01
1 77923U 23357LM  26070.40834491  .00000000  00000+0  00000-0 0  9995
2 77923  65.0000 228.0000 0000000   0.0000 228.0000 15.28598846    12
CTC1_L_00274020-02
1 77924U 24869E   26070.40834491  .00000000  00000+0  00000-0 0  9995
2 77924  65.0000 228.0000 0000000   0.0000 318.0000 15.28598846    13
CTC1_L_00274020-03
1 77925U 25866QM  26070.40834491  .00000000  00000+0  00000-0 0  9994
2 77925  65.0000 228.0000 0000000   0.0000  48.0000 15.28598846    14
CTC1_L_00274020-04
1 77926U 23788AW  26070.40834491  .00000000  00000+0  00000-0 0  9996
2 77926  65.0000 228.0000 0000000   0.0000 138.0000 15.28598846    15
CTC1_L_00274021-01
1 77927U 23752YS  26070.40834491  .00000000  00000+0  00000-0 0  9998
2 77927  65.0000 240.0000 0000000   0.0000 240.0000 15.28598846    14
CTC1_L_00274021-02
1 77928U 22164JO  26070.40834491  .00000000  00000+0  00000-0 0  9995
2 77928  65.0000 240.0000 0000000   0.0000 330.0000 15.28598846    15
CTC1_L_00274021-03
1 77929U 23364WY  26070.40834491  .00000000  00000+0  00000-0 0  9999
2 77929  65.0000 240.0000 0000000   0.0000  60.0000 15.28598846    16
CTC1_L_00274021-04
1 77930U 26229TG  26070.40834491  .00000000  00000+0  00000-0 0  9994
2 77930  65.0000 240.0000 0000000   0.0000 150.0000 15.28598846    18
CTC1_L_00274022-01
1 77931U 26058QG  26070.40834491  .00000000  00000+0  00000-0 0  9995
2 77931  65.0000 252.0000 0000000   0.0000 252.0000 15.28598846    15
CTC1_L_00274022-02
1 77932U 26157AZ  26070.40834491  .00000000  00000+0  00000-0 0  9996
2 77932  65.0000 252.0000 0000000   0.0000 342.0000 15.28598846    16
CTC1_L_00274022-03
1 77933U 24930AQ  26070.40834491  .00000000  00000+0  00000-0 0  9994
2 77933  65.0000 252.0000 0000000   0.0000  72.0000 15.28598846    17
CTC1_L_00274022-04
1 77934U 25901JS  26070.40834491  .00000000  00000+0  00000-0 0  9994
2 77934  65.0000 252.0000 0000000   0.0000 162.0000 15.28598846    18
CTC1_L_00274023-01
1 77935U 24764HB  26070.40834491  .00000000  00000+0  00000-0 0  9991
2 77935  65.0000 264.0000 0000000   0.0000 264.0000 15.28598846    15
CTC1_L_00274023-02
1 77936U 23032CQ  26070.40834491  .00000000  00000+0  00000-0 0  9999
2 77936  65.0000 264.0000 0000000   0.0000 354.0000 15.28598846    16
CTC1_L_00274023-03
1 77937U 25528PK  26070.40834491  .00000000  00000+0  00000-0 0  9992
2 77937  65.0000 264.0000 0000000   0.0000  84.0000 15.28598846    17
CTC1_L_00274023-04
1 77938U 22583HR  26070.40834491  .00000000  00000+0  00000-0 0  9991
2 77938  65.0000 264.0000 0000000   0.0000 174.0000 15.28598846    18
CTC1_L_00274024-01
1 77939U 22376JL  26070.40834491  .00000000  00000+0  00000-0 0  9992
2 77939  65.0000 276.0000 0000000   0.0000 276.0000 15.28598846    15
CTC1_L_00274024-02
1 77940U 25232BU  26070.40834491  .00000000  00000+0  00000-0 0  9998
2 77940  65.0000 276.0000 0000000   0.0000   6.0000 15.28598846    18
CTC1_L_00274024-03
1 77941U 24088ZK  26070.40834491  .00000000  00000+0  00000-0 0  9997
2 77941  65.0000 276.0000 0000000   0.0000  96.0000 15.28598846    18
CTC1_L_00274024-04
1 77942U 25269ZT  26070.40834491  .00000000  00000+0  00000-0 0  9990
2 77942  65.0000 276.0000 0000000   0.0000 186.0000 15.28598846    19
CTC1_L_00274025-01
1 77943U 22288MW  26070.40834491  .00000000  00000+0  00000-0 0  9999
2 77943  65.0000 288.0000 0000000   0.0000 288.0000 15.28598846    16
CTC1_L_00274025-02
1 77944U 23544QU  26070.40834491  .00000000  00000+0  00000-0 0  9996
2 77944  65.0000 288.0000 0000000   0.0000  18.0000 15.28598846    18
CTC1_L_00274025-03
1 77945U 23678CN  26070.40834491  .00000000  00000+0  00000-0 0  9995
2 77945  65.0000 288.0000 0000000   0.0000 108.0000 15.28598846    19
CTC1_L_00274025-04
1 77946U 26677RM  26070.40834491  .00000000  00000+0  00000-0 0  9998
2 77946  65.0000 288.0000 0000000   0.0000 198.0000 15.28598846    19
CTC1_L_00274026-01
1 77947U 22146HD  26070.40834491  .00000000  00000+0  00000-0 0  9996
2 77947  65.0000 300.0000 0000000   0.0000 300.0000 15.28598846    10
CTC1_L_00274026-02
1 77948U 23670UM  26070.40834491  .00000000  00000+0  00000-0 0  9990
2 77948  65.0000 300.0000 0000000   0.0000  30.0000 15.28598846    11
CTC1_L_00274026-03
1 77949U 22103OK  26070.40834491  .00000000  00000+0  00000-0 0  9991
2 77949  65.0000 300.0000 0000000   0.0000 120.0000 15.28598846    12
CTC1_L_00274026-04
1 77950U 25184ZJ  26070.40834491  .00000000  00000+0  00000-0 0  9995
2 77950  65.0000 300.0000 0000000   0.0000 210.0000 15.28598846    14
CTC1_L_00274027-01
1 77951U 26231KW  26070.40834491  .00000000  00000+0  00000-0 0  9990
2 77951  65.0000 312.0000 0000000   0.0000 312.0000 15.28598846    11
CTC1_L_00274027-02
1 77952U 24405WW  26070.40834491  .00000000  00000+0  00000-0 0  9992
2 77952  65.0000 312.0000 0000000   0.0000  42.0000 15.28598846    12
CTC1_L_00274027-03
1 77953U 22768JG  26070.40834491  .00000000  00000+0  00000-0 0  9993
2 77953  65.0000 312.0000 0000000   0.0000 132.0000 15.28598846    13
CTC1_L_00274027-04
1 77954U 23046U   26070.40834491  .00000000  00000+0  00000-0 0  9994
2 77954  65.0000 312.0000 0000000   0.0000 222.0000 15.28598846    14
CTC1_L_00274028-01
1 77955U 26460PL  26070.40834491  .00000000  00000+0  00000-0 0  9998
2 77955  65.0000 324.0000 0000000   0.0000 324.0000 15.28598846    11
CTC1_L_00274028-02
1 77956U 25101XB  26070.40834491  .00000000  00000+0  00000-0 0  9990
2 77956  65.0000 324.0000 0000000   0.0000  54.0000 15.28598846    12
CTC1_L_00274028-03
1 77957U 26280CK  26070.40834491  .00000000  00000+0  00000-0 0  9990
2 77957  65.0000 324.0000 0000000   0.0000 144.0000 15.28598846    13
CTC1_L_00274028-04
1 77958U 25601SM  26070.40834491  .00000000  00000+0  00000-0 0  9997
2 77958  65.0000 324.0000 0000000   0.0000 234.0000 15.28598846    14
CTC1_L_00274029-01
1 77959U 22816NX  26070.40834491  .00000000  00000+0  00000-0 0  9993
2 77959  65.0000 336.0000 0000000   0.0000 336.0000 15.28598846    11
CTC1_L_00274029-02
1 77960U 22790YJ  26070.40834491  .00000000  00000+0  00000-0 0  9996
2 77960  65.0000 336.0000 0000000   0.0000  66.0000 15.28598846    13
CTC1_L_00274029-03
1 77961U 26736EC  26070.40834491  .00000000  00000+0  00000-0 0  9991
2 77961  65.0000 336.0000 0000000   0.0000 156.0000 15.28598846    14
CTC1_L_00274029-04
1 77962U 25188YA  26070.40834491  .00000000  00000+0  00000-0 0  9992
2 77962  65.0000 336.0000 0000000   0.0000 246.0000 15.28598846    15
CTC1_L_00274030-01
1 77963U 23309NS  26070.40834491  .00000000  00000+0  00000-0 0  9996
2 77963  65.0000 348.0000 0000000   0.0000 348.0000 15.28598846    12
CTC1_L_00274030-02
1 77964U 24558YS  26070.40834491  .00000000  00000+0  00000-0 0  9994
2 77964  65.0000 348.0000 0000000   0.0000  78.0000 15.28598846    13
CTC1_L_00274030-03
1 77965U 24453KP  26070.40834491  .00000000  00000+0  00000-0 0  9999
2 77965  65.0000 348.0000 0000000   0.0000 168.0000 15.28598846    14
CTC1_L_00274030-04
1 77966U 22785IN  26070.40834491  .00000000  00000+0  00000-0 0  9996
2 77966  65.0000 348.0000 0000000   0.0000 258.0000 15.28598846    15
